[{"OBJECT_NAME":"ONEWEB-0304","OBJECT_ID":"2021-075T","EPOCH":"2026-03-09T22:04:29.304768","MEAN_MOTION":13.17649847,"ECCENTRICITY":0.0001885,"INCLINATION":87.9156,"RA_OF_ASC_NODE":25.5802,"ARG_OF_PERICENTER":75.7343,"MEAN_ANOMALY":284.3997,"EPHEMERIS_TYPE":0,"CLASSIFICATION_TYPE":"U","NORAD_CAT_ID":49092,"ELEMENT_SET_NO":999,"REV_AT_EPOCH":22050,"BSTAR":-5.20383e-6,"MEAN_MOTION_DOT":1.1e-7,"MEAN_MOTION_DDOT":0},{"OBJECT_NAME":"BREEZE-M R\/B","OBJECT_ID":"2008-025E","EPOCH":"2026-03-09T17:23:06.550368","MEAN_MOTION":12.77759449,"ECCENTRICITY":0.01983855,"INCLINATION":82.5048,"RA_OF_ASC_NODE":146.2377,"ARG_OF_PERICENTER":263.0589,"MEAN_ANOMALY":215.0569,"EPHEMERIS_TYPE":0,"CLASSIFICATION_TYPE":"U","NORAD_CAT_ID":32957,"ELEMENT_SET_NO":999,"REV_AT_EPOCH":82989,"BSTAR":6.084448e-5,"MEAN_MOTION_DOT":2.4e-7,"MEAN_MOTION_DDOT":0}]
